{
  "type": "FeatureCollection",
  "features": [
    {
      "type": "Feature",
      "properties": {
        "name": "Islamabad Weather Station",
        "temperature": 27.4,
        "rainfall": 12.6
      },
      "geometry": {
        "type": "Point",
        "coordinates": [73.0479, 33.6844]
      }
    },
    {
      "type": "Feature",
      "properties": {
        "name": "Lahore Weather Station",
        "temperature": 31.2,
        "rainfall": 8.4
      },
      "geometry": {
        "type": "Point",
        "coordinates": [74.3587, 31.5204]
      }
    },
    {
      "type": "Feature",
      "properties": {
        "name": "Karachi Weather Station",
        "temperature": 30.8,
        "rainfall": 2.1
      },
      "geometry": {
        "type": "Point",
        "coordinates": [67.0011, 24.8607]
      }
    },
    {
      "type": "Feature",
      "properties": {
        "name": "Peshawar Weather Station",
        "temperature": 29.7,
        "rainfall": 6.8
      },
      "geometry": {
        "type": "Point",
        "coordinates": [71.5249, 34.0151]
      }
    },
    {
      "type": "Feature",
      "properties": {
        "name": "Quetta Weather Station",
        "temperature": 22.9,
        "rainfall": 1.7
      },
      "geometry": {
        "type": "Point",
        "coordinates": [66.9750, 30.1798]
      }
    },
    {
      "type": "Feature",
      "properties": {
        "name": "Multan Weather Station",
        "temperature": 33.5,
        "rainfall": 3.2
      },
      "geometry": {
        "type": "Point",
        "coordinates": [71.5249, 30.1575]
      }
    },
    {
      "type": "Feature",
      "properties": {
        "name": "Faisalabad Weather Station",
        "temperature": 30.9,
        "rainfall": 7.3
      },
      "geometry": {
        "type": "Point",
        "coordinates": [73.1350, 31.4504]
      }
    },
    {
      "type": "Feature",
      "properties": {
        "name": "Rawalpindi Weather Station",
        "temperature": 27.8,
        "rainfall": 14.2
      },
      "geometry": {
        "type": "Point",
        "coordinates": [73.0479, 33.5651]
      }
    },
    {
      "type": "Feature",
      "properties": {
        "name": "Gujranwala Weather Station",
        "temperature": 30.4,
        "rainfall": 9.7
      },
      "geometry": {
        "type": "Point",
        "coordinates": [74.1871, 32.1877]
      }
    },
    {
      "type": "Feature",
      "properties": {
        "name": "Sialkot Weather Station",
        "temperature": 29.8,
        "rainfall": 11.5
      },
      "geometry": {
        "type": "Point",
        "coordinates": [74.5431, 32.4945]
      }
    },
    {
      "type": "Feature",
      "properties": {
        "name": "Hyderabad Weather Station",
        "temperature": 32.6,
        "rainfall": 2.9
      },
      "geometry": {
        "type": "Point",
        "coordinates": [68.3578, 25.3960]
      }
    },
    {
      "type": "Feature",
      "properties": {
        "name": "Sukkur Weather Station",
        "temperature": 34.1,
        "rainfall": 1.8
      },
      "geometry": {
        "type": "Point",
        "coordinates": [68.8574, 27.7244]
      }
    },
    {
      "type": "Feature",
      "properties": {
        "name": "Bahawalpur Weather Station",
        "temperature": 33.2,
        "rainfall": 2.6
      },
      "geometry": {
        "type": "Point",
        "coordinates": [71.6833, 29.3956]
      }
    },
    {
      "type": "Feature",
      "properties": {
        "name": "Sargodha Weather Station",
        "temperature": 31.0,
        "rainfall": 8.9
      },
      "geometry": {
        "type": "Point",
        "coordinates": [72.6711, 32.0836]
      }
    },
    {
      "type": "Feature",
      "properties": {
        "name": "Abbottabad Weather Station",
        "temperature": 23.8,
        "rainfall": 18.4
      },
      "geometry": {
        "type": "Point",
        "coordinates": [73.2215, 34.1463]
      }
    },
    {
      "type": "Feature",
      "properties": {
        "name": "Mardan Weather Station",
        "temperature": 28.6,
        "rainfall": 7.1
      },
      "geometry": {
        "type": "Point",
        "coordinates": [72.0451, 34.1980]
      }
    },
    {
      "type": "Feature",
      "properties": {
        "name": "Muzaffarabad Weather Station",
        "temperature": 24.7,
        "rainfall": 21.3
      },
      "geometry": {
        "type": "Point",
        "coordinates": [73.4708, 34.3700]
      }
    },
    {
      "type": "Feature",
      "properties": {
        "name": "Gilgit Weather Station",
        "temperature": 18.5,
        "rainfall": 3.4
      },
      "geometry": {
        "type": "Point",
        "coordinates": [74.3142, 35.9208]
      }
    },
    {
      "type": "Feature",
      "properties": {
        "name": "Skardu Weather Station",
        "temperature": 16.9,
        "rainfall": 2.7
      },
      "geometry": {
        "type": "Point",
        "coordinates": [75.6333, 35.2971]
      }
    },
    {
      "type": "Feature",
      "properties": {
        "name": "Gwadar Weather Station",
        "temperature": 29.6,
        "rainfall": 0.8
      },
      "geometry": {
        "type": "Point",
        "coordinates": [62.3254, 25.1264]
      }
    }
  ]
}